SILVERSAT               
1 66909U 98067XV  26039.50440908  .00131377  00000+0  14018-2 0  9997
2 66909  51.6265 213.2711 0002437 240.0519 120.0233 15.63003345 10610
ISS OBJECT XW           
1 66910U 98067XW  26038.75165351  .00124600  00000+0  14148-2 0  9996
2 66910  51.6262 217.2388 0000983 258.5946 101.4937 15.61429611 10491
ISS OBJECT XX           
1 66911U 98067XX  26038.70806818  .00165665  00000+0  16909-2 0  9995
2 66911  51.6247 216.9470 0002516 264.5889  95.4819 15.64004478 10483
ISS OBJECT XY           
1 66912U 98067XY  26038.74848449  .00088919  00000+0  11315-2 0  9998
2 66912  51.6283 217.9746 0001112 162.5092 197.5939 15.58603065 10471
ISS OBJECT XZ           
1 67683U 98067XZ  26039.46816205  .00037381  00000+0  67103-3 0  9993
2 67683  51.6308 216.7774 0011095  92.4277 267.7982 15.49462361   255
ISS OBJECT YA           
1 67684U 98067YA  26039.46724013  .00071288  00000+0  12461-2 0  9999
2 67684  51.6306 216.7728 0013075  87.9327 272.3159 15.49905618   253
LEOPARD                 
1 67685U 98067YB  26039.46794550  .00042929  00000+0  76572-3 0  9997
2 67685  51.6310 216.7760 0013005  88.0138 272.2340 15.49554430   253
ISS OBJECT YC           
1 67686U 98067YC  26039.46782494  .00049225  00000+0  87548-3 0  9993
2 67686  51.6314 216.7767 0007846  65.6244 294.5563 15.49633499   257
CORAL                   
1 67687U 98067YD  26039.46803431  .00040852  00000+0  73158-3 0  9998
2 67687  51.6313 216.7769 0007905  67.3117 292.8707 15.49521220   173
GXIBA-1                 
1 67688U 98067YE  26039.46784318  .00046278  00000+0  82457-3 0  9991
2 67688  51.6316 216.7758 0007806  66.2843 293.8964 15.49609500   173
