CCSDS_OMM_VERS = 2.0
CREATION_DATE  = 
ORIGINATOR     = 

OBJECT_NAME    = SILVERSAT
OBJECT_ID      = 1998-067XV
CENTER_NAME    = EARTH
REF_FRAME      = TEME
TIME_SYSTEM    = UTC
MEAN_ELEMENT_THEORY = SGP/SGP4

EPOCH          = 2026-02-08T12:06:20.944512
MEAN_MOTION    = 15.63003345
ECCENTRICITY   = .0002437
INCLINATION    = 51.6265
RA_OF_ASC_NODE = 213.2711
ARG_OF_PERICENTER = 240.0519
MEAN_ANOMALY   = 120.0233

EPHEMERIS_TYPE = 0
CLASSIFICATION_TYPE = U
NORAD_CAT_ID   = 66909
ELEMENT_SET_NO = 999
REV_AT_EPOCH   = 1061
BSTAR          = .14018E-2
MEAN_MOTION_DOT = .131377E-2
MEAN_MOTION_DDOT = 0

CCSDS_OMM_VERS = 2.0
CREATION_DATE  = 
ORIGINATOR     = 

OBJECT_NAME    = ISS OBJECT XW
OBJECT_ID      = 1998-067XW
CENTER_NAME    = EARTH
REF_FRAME      = TEME
TIME_SYSTEM    = UTC
MEAN_ELEMENT_THEORY = SGP/SGP4

EPOCH          = 2026-02-07T18:02:22.863264
MEAN_MOTION    = 15.61429611
ECCENTRICITY   = .00009834
INCLINATION    = 51.6262
RA_OF_ASC_NODE = 217.2388
ARG_OF_PERICENTER = 258.5946
MEAN_ANOMALY   = 101.4937

EPHEMERIS_TYPE = 0
CLASSIFICATION_TYPE = U
NORAD_CAT_ID   = 66910
ELEMENT_SET_NO = 999
REV_AT_EPOCH   = 1049
BSTAR          = .1414812E-2
MEAN_MOTION_DOT = .1246E-2
MEAN_MOTION_DDOT = 0

CCSDS_OMM_VERS = 2.0
CREATION_DATE  = 
ORIGINATOR     = 

OBJECT_NAME    = ISS OBJECT XX
OBJECT_ID      = 1998-067XX
CENTER_NAME    = EARTH
REF_FRAME      = TEME
TIME_SYSTEM    = UTC
MEAN_ELEMENT_THEORY = SGP/SGP4

EPOCH          = 2026-02-07T16:59:37.090752
MEAN_MOTION    = 15.64004478
ECCENTRICITY   = .00025167
INCLINATION    = 51.6247
RA_OF_ASC_NODE = 216.9470
ARG_OF_PERICENTER = 264.5889
MEAN_ANOMALY   = 95.4819

EPHEMERIS_TYPE = 0
CLASSIFICATION_TYPE = U
NORAD_CAT_ID   = 66911
ELEMENT_SET_NO = 999
REV_AT_EPOCH   = 1048
BSTAR          = .16908932E-2
MEAN_MOTION_DOT = .165665E-2
MEAN_MOTION_DDOT = 0

CCSDS_OMM_VERS = 2.0
CREATION_DATE  = 
ORIGINATOR     = 

OBJECT_NAME    = ISS OBJECT XY
OBJECT_ID      = 1998-067XY
CENTER_NAME    = EARTH
REF_FRAME      = TEME
TIME_SYSTEM    = UTC
MEAN_ELEMENT_THEORY = SGP/SGP4

EPOCH          = 2026-02-07T17:57:49.059936
MEAN_MOTION    = 15.58603065
ECCENTRICITY   = .00011122
INCLINATION    = 51.6283
RA_OF_ASC_NODE = 217.9746
ARG_OF_PERICENTER = 162.5092
MEAN_ANOMALY   = 197.5939

EPHEMERIS_TYPE = 0
CLASSIFICATION_TYPE = U
NORAD_CAT_ID   = 66912
ELEMENT_SET_NO = 999
REV_AT_EPOCH   = 1047
BSTAR          = .11314625E-2
MEAN_MOTION_DOT = .88919E-3
MEAN_MOTION_DDOT = 0

CCSDS_OMM_VERS = 2.0
CREATION_DATE  = 
ORIGINATOR     = 

OBJECT_NAME    = ISS OBJECT XZ
OBJECT_ID      = 1998-067XZ
CENTER_NAME    = EARTH
REF_FRAME      = TEME
TIME_SYSTEM    = UTC
MEAN_ELEMENT_THEORY = SGP/SGP4

EPOCH          = 2026-02-08T11:14:09.201120
MEAN_MOTION    = 15.49462361
ECCENTRICITY   = .0011095
INCLINATION    = 51.6308
RA_OF_ASC_NODE = 216.7774
ARG_OF_PERICENTER = 92.4277
MEAN_ANOMALY   = 267.7982

EPHEMERIS_TYPE = 0
CLASSIFICATION_TYPE = U
NORAD_CAT_ID   = 67683
ELEMENT_SET_NO = 999
REV_AT_EPOCH   = 25
BSTAR          = .67103E-3
MEAN_MOTION_DOT = .37381E-3
MEAN_MOTION_DDOT = 0

CCSDS_OMM_VERS = 2.0
CREATION_DATE  = 
ORIGINATOR     = 

OBJECT_NAME    = ISS OBJECT YA
OBJECT_ID      = 1998-067YA
CENTER_NAME    = EARTH
REF_FRAME      = TEME
TIME_SYSTEM    = UTC
MEAN_ELEMENT_THEORY = SGP/SGP4

EPOCH          = 2026-02-08T11:12:49.547232
MEAN_MOTION    = 15.49905618
ECCENTRICITY   = .0013075
INCLINATION    = 51.6306
RA_OF_ASC_NODE = 216.7728
ARG_OF_PERICENTER = 87.9327
MEAN_ANOMALY   = 272.3159

EPHEMERIS_TYPE = 0
CLASSIFICATION_TYPE = U
NORAD_CAT_ID   = 67684
ELEMENT_SET_NO = 999
REV_AT_EPOCH   = 25
BSTAR          = .12461E-2
MEAN_MOTION_DOT = .71288E-3
MEAN_MOTION_DDOT = 0

CCSDS_OMM_VERS = 2.0
CREATION_DATE  = 
ORIGINATOR     = 

OBJECT_NAME    = LEOPARD
OBJECT_ID      = 1998-067YB
CENTER_NAME    = EARTH
REF_FRAME      = TEME
TIME_SYSTEM    = UTC
MEAN_ELEMENT_THEORY = SGP/SGP4

EPOCH          = 2026-02-08T11:13:50.491200
MEAN_MOTION    = 15.49554430
ECCENTRICITY   = .0013005
INCLINATION    = 51.6310
RA_OF_ASC_NODE = 216.7760
ARG_OF_PERICENTER = 88.0138
MEAN_ANOMALY   = 272.2340

EPHEMERIS_TYPE = 0
CLASSIFICATION_TYPE = U
NORAD_CAT_ID   = 67685
ELEMENT_SET_NO = 999
REV_AT_EPOCH   = 25
BSTAR          = .76572E-3
MEAN_MOTION_DOT = .42929E-3
MEAN_MOTION_DDOT = 0

CCSDS_OMM_VERS = 2.0
CREATION_DATE  = 
ORIGINATOR     = 

OBJECT_NAME    = ISS OBJECT YC
OBJECT_ID      = 1998-067YC
CENTER_NAME    = EARTH
REF_FRAME      = TEME
TIME_SYSTEM    = UTC
MEAN_ELEMENT_THEORY = SGP/SGP4

EPOCH          = 2026-02-08T11:13:40.074816
MEAN_MOTION    = 15.49633499
ECCENTRICITY   = .0007846
INCLINATION    = 51.6314
RA_OF_ASC_NODE = 216.7767
ARG_OF_PERICENTER = 65.6244
MEAN_ANOMALY   = 294.5563

EPHEMERIS_TYPE = 0
CLASSIFICATION_TYPE = U
NORAD_CAT_ID   = 67686
ELEMENT_SET_NO = 999
REV_AT_EPOCH   = 25
BSTAR          = .87548E-3
MEAN_MOTION_DOT = .49225E-3
MEAN_MOTION_DDOT = 0

CCSDS_OMM_VERS = 2.0
CREATION_DATE  = 
ORIGINATOR     = 

OBJECT_NAME    = CORAL
OBJECT_ID      = 1998-067YD
CENTER_NAME    = EARTH
REF_FRAME      = TEME
TIME_SYSTEM    = UTC
MEAN_ELEMENT_THEORY = SGP/SGP4

EPOCH          = 2026-02-08T11:13:58.164384
MEAN_MOTION    = 15.49521220
ECCENTRICITY   = .0007905
INCLINATION    = 51.6313
RA_OF_ASC_NODE = 216.7769
ARG_OF_PERICENTER = 67.3117
MEAN_ANOMALY   = 292.8707

EPHEMERIS_TYPE = 0
CLASSIFICATION_TYPE = U
NORAD_CAT_ID   = 67687
ELEMENT_SET_NO = 999
REV_AT_EPOCH   = 17
BSTAR          = .73158E-3
MEAN_MOTION_DOT = .40852E-3
MEAN_MOTION_DDOT = 0

CCSDS_OMM_VERS = 2.0
CREATION_DATE  = 
ORIGINATOR     = 

OBJECT_NAME    = GXIBA-1
OBJECT_ID      = 1998-067YE
CENTER_NAME    = EARTH
REF_FRAME      = TEME
TIME_SYSTEM    = UTC
MEAN_ELEMENT_THEORY = SGP/SGP4

EPOCH          = 2026-02-08T11:13:41.650752
MEAN_MOTION    = 15.49609500
ECCENTRICITY   = .0007806
INCLINATION    = 51.6316
RA_OF_ASC_NODE = 216.7758
ARG_OF_PERICENTER = 66.2843
MEAN_ANOMALY   = 293.8964

EPHEMERIS_TYPE = 0
CLASSIFICATION_TYPE = U
NORAD_CAT_ID   = 67688
ELEMENT_SET_NO = 999
REV_AT_EPOCH   = 17
BSTAR          = .82457E-3
MEAN_MOTION_DOT = .46278E-3
MEAN_MOTION_DDOT = 0

